KUIPER-00265            
1 67159U 25301AC  26198.80121536  .00000916  00000+0  14911-3 0  9995
2 67159  51.9018 230.2915 0000317  75.9235 284.1763 14.79935124 32751
KUIPER-00159            
1 67764U 26030A   26198.91668981 -.01731709  00000+0 -91675-1 0  9993
2 67764  51.8910 310.2550 0005755 143.4373 318.5142 15.18594176  5869
KUIPER-00160            
1 67765U 26030B   26198.71295002  .00012715  00000+0  35200-3 0  9992
2 67765  51.8826 310.6212 0005699 151.8773 208.2522 15.37336233 25092
KUIPER-00177            
1 67766U 26030C   26198.88315737  .00001781  00000+0  26247-3 0  9991
2 67766  51.9023 357.4087 0000589 130.9765 229.1248 14.79939750 24458
KUIPER-00178            
1 67767U 26030D   26197.83644698  .00001608  00000+0  23990-3 0  9997
2 67767  51.9020   2.0193 0000703 137.1684 222.9333 14.79932295 24301
KUIPER-00180            
1 67768U 26030E   26198.78725162  .00001529  00000+0  22946-3 0  9991
2 67768  51.9001 352.8178 0000453 112.5478 247.5532 14.79941112 24515
KUIPER-00197            
1 67769U 26030F   26198.80883759  .00000174  00000+0  51759-4 0  9992
2 67769  51.8999 332.7366 0000323 166.6649 193.4322 14.79928591 24795
KUIPER-00198            
1 67770U 26030G   26198.69405692 -.00000028  00000+0  25310-4 0  9990
2 67770  51.8997 345.7252 0000463 113.0426 247.0585 14.79928521 24607
KUIPER-00199            
1 67771U 26030H   26198.73749607 -.00051465  00000+0 -13989-2 0  9992
2 67771  51.8814 312.2507 0009961 182.8939 177.1991 15.36942483 25076
KUIPER-00200            
1 67772U 26030J   26198.77792463  .00001449  00000+0  21925-3 0  9990
2 67772  51.8994 330.3999 0001341  87.0371 273.0745 14.79887588 24827
KUIPER-00203            
1 67773U 26030K   26198.74271936  .00000735  00000+0  12538-3 0  9992
2 67773  51.9078   3.0761 0000695 129.1503 230.9521 14.79928976 24369
KUIPER-00205            
1 67774U 26030L   26198.78035267 -.00000775  00000+0 -72611-4 0  9997
2 67774  51.9013 327.8380 0000876 135.1823 224.9210 14.79939486 24867
KUIPER-00208            
1 67775U 26030M   26198.91668981  .00110314  00000+0  14388-1 0  9991
2 67775  51.8991 354.7457 0000935 213.2910 132.2469 14.79565834  5607
KUIPER-00209            
1 67776U 26030N   26198.82103772 -.00000208  00000+0  17324-5 0  9992
2 67776  51.9006 352.7600 0000722 123.2281 236.8751 14.79927881 24519
KUIPER-00213            
1 67777U 26030P   26198.92502510  .00000671  00000+0  11703-3 0  9993
2 67777  51.8989 349.7812 0000624 113.6172 246.4856 14.79928417 24567
KUIPER-00214            
1 67778U 26030Q   26198.89395376  .00001601  00000+0  23891-3 0  9995
2 67778  51.9018 347.4285 0000600 125.8380 234.2638 14.79939654 24592
