{"fetched_at":"2026-07-18T06:27:44.179Z","source":"https://celestrak.org/NORAD/elements/gp.php?GROUP=kuiper&FORMAT=JSON","constellation":"kuiper","records":[{"OBJECT_NAME":"KUIPER-00265","OBJECT_ID":"2025-301AC","EPOCH":"2026-07-17T19:13:45.007104","CLASSIFICATION_TYPE":"U","MEAN_MOTION":14.79935124,"ECCENTRICITY":0.00003176,"INCLINATION":51.9018,"RA_OF_ASC_NODE":230.2915,"ARG_OF_PERICENTER":75.9235,"MEAN_ANOMALY":284.1763,"EPHEMERIS_TYPE":0,"NORAD_CAT_ID":67159,"ELEMENT_SET_NO":999,"REV_AT_EPOCH":3275,"BSTAR":0.00014910872,"MEAN_MOTION_DOT":0.00000916,"MEAN_MOTION_DDOT":0},{"OBJECT_NAME":"KUIPER-00159","OBJECT_ID":"2026-030A","EPOCH":"2026-07-17T22:00:01.999584","CLASSIFICATION_TYPE":"U","MEAN_MOTION":15.18594176,"ECCENTRICITY":0.00057554,"INCLINATION":51.891,"RA_OF_ASC_NODE":310.255,"ARG_OF_PERICENTER":143.4373,"MEAN_ANOMALY":318.5142,"EPHEMERIS_TYPE":0,"NORAD_CAT_ID":67764,"ELEMENT_SET_NO":999,"REV_AT_EPOCH":586,"BSTAR":-0.091674741,"MEAN_MOTION_DOT":-0.01731709,"MEAN_MOTION_DDOT":0},{"OBJECT_NAME":"KUIPER-00160","OBJECT_ID":"2026-030B","EPOCH":"2026-07-17T17:06:38.881728","CLASSIFICATION_TYPE":"U","MEAN_MOTION":15.37336233,"ECCENTRICITY":0.00056996,"INCLINATION":51.8826,"RA_OF_ASC_NODE":310.6212,"ARG_OF_PERICENTER":151.8773,"MEAN_ANOMALY":208.2522,"EPHEMERIS_TYPE":0,"NORAD_CAT_ID":67765,"ELEMENT_SET_NO":999,"REV_AT_EPOCH":2509,"BSTAR":0.00035199761,"MEAN_MOTION_DOT":0.00012715,"MEAN_MOTION_DDOT":0},{"OBJECT_NAME":"KUIPER-00177","OBJECT_ID":"2026-030C","EPOCH":"2026-07-17T21:11:44.796768","CLASSIFICATION_TYPE":"U","MEAN_MOTION":14.7993975,"ECCENTRICITY":0.00005895,"INCLINATION":51.9023,"RA_OF_ASC_NODE":357.4087,"ARG_OF_PERICENTER":130.9765,"MEAN_ANOMALY":229.1248,"EPHEMERIS_TYPE":0,"NORAD_CAT_ID":67766,"ELEMENT_SET_NO":999,"REV_AT_EPOCH":2445,"BSTAR":0.00026246512,"MEAN_MOTION_DOT":0.00001781,"MEAN_MOTION_DDOT":0},{"OBJECT_NAME":"KUIPER-00178","OBJECT_ID":"2026-030D","EPOCH":"2026-07-16T20:04:29.019072","CLASSIFICATION_TYPE":"U","MEAN_MOTION":14.79932295,"ECCENTRICITY":0.00007038,"INCLINATION":51.902,"RA_OF_ASC_NODE":2.0193,"ARG_OF_PERICENTER":137.1684,"MEAN_ANOMALY":222.9333,"EPHEMERIS_TYPE":0,"NORAD_CAT_ID":67767,"ELEMENT_SET_NO":999,"REV_AT_EPOCH":2430,"BSTAR":0.00023989982,"MEAN_MOTION_DOT":0.00001608,"MEAN_MOTION_DDOT":0},{"OBJECT_NAME":"KUIPER-00180","OBJECT_ID":"2026-030E","EPOCH":"2026-07-17T18:53:38.539968","CLASSIFICATION_TYPE":"U","MEAN_MOTION":14.79941112,"ECCENTRICITY":0.00004532,"INCLINATION":51.9001,"RA_OF_ASC_NODE":352.8178,"ARG_OF_PERICENTER":112.5478,"MEAN_ANOMALY":247.5532,"EPHEMERIS_TYPE":0,"NORAD_CAT_ID":67768,"ELEMENT_SET_NO":999,"REV_AT_EPOCH":2451,"BSTAR":0.00022945949,"MEAN_MOTION_DOT":0.00001529,"MEAN_MOTION_DDOT":0},{"OBJECT_NAME":"KUIPER-00197","OBJECT_ID":"2026-030F","EPOCH":"2026-07-17T19:24:43.567776","CLASSIFICATION_TYPE":"U","MEAN_MOTION":14.79928591,"ECCENTRICITY":0.00003232,"INCLINATION":51.8999,"RA_OF_ASC_NODE":332.7366,"ARG_OF_PERICENTER":166.6649,"MEAN_ANOMALY":193.4322,"EPHEMERIS_TYPE":0,"NORAD_CAT_ID":67769,"ELEMENT_SET_NO":999,"REV_AT_EPOCH":2479,"BSTAR":0.000051759146,"MEAN_MOTION_DOT":0.00000174,"MEAN_MOTION_DDOT":0},{"OBJECT_NAME":"KUIPER-00198","OBJECT_ID":"2026-030G","EPOCH":"2026-07-17T16:39:26.517888","CLASSIFICATION_TYPE":"U","MEAN_MOTION":14.79928521,"ECCENTRICITY":0.00004636,"INCLINATION":51.8997,"RA_OF_ASC_NODE":345.7252,"ARG_OF_PERICENTER":113.0426,"MEAN_ANOMALY":247.0585,"EPHEMERIS_TYPE":0,"NORAD_CAT_ID":67770,"ELEMENT_SET_NO":999,"REV_AT_EPOCH":2460,"BSTAR":0.000025310072,"MEAN_MOTION_DOT":-2.8e-7,"MEAN_MOTION_DDOT":0},{"OBJECT_NAME":"KUIPER-00199","OBJECT_ID":"2026-030H","EPOCH":"2026-07-17T17:41:59.660448","CLASSIFICATION_TYPE":"U","MEAN_MOTION":15.36942483,"ECCENTRICITY":0.00099616,"INCLINATION":51.8814,"RA_OF_ASC_NODE":312.2507,"ARG_OF_PERICENTER":182.8939,"MEAN_ANOMALY":177.1991,"EPHEMERIS_TYPE":0,"NORAD_CAT_ID":67771,"ELEMENT_SET_NO":999,"REV_AT_EPOCH":2507,"BSTAR":-0.0013988704,"MEAN_MOTION_DOT":-0.00051465,"MEAN_MOTION_DDOT":0},{"OBJECT_NAME":"KUIPER-00200","OBJECT_ID":"2026-030J","EPOCH":"2026-07-17T18:40:12.688032","CLASSIFICATION_TYPE":"U","MEAN_MOTION":14.79887588,"ECCENTRICITY":0.00013418,"INCLINATION":51.8994,"RA_OF_ASC_NODE":330.3999,"ARG_OF_PERICENTER":87.0371,"MEAN_ANOMALY":273.0745,"EPHEMERIS_TYPE":0,"NORAD_CAT_ID":67772,"ELEMENT_SET_NO":999,"REV_AT_EPOCH":2482,"BSTAR":0.00021925328,"MEAN_MOTION_DOT":0.00001449,"MEAN_MOTION_DDOT":0},{"OBJECT_NAME":"KUIPER-00203","OBJECT_ID":"2026-030K","EPOCH":"2026-07-17T17:49:30.952704","CLASSIFICATION_TYPE":"U","MEAN_MOTION":14.79928976,"ECCENTRICITY":0.00006956,"INCLINATION":51.9078,"RA_OF_ASC_NODE":3.0761,"ARG_OF_PERICENTER":129.1503,"MEAN_ANOMALY":230.9521,"EPHEMERIS_TYPE":0,"NORAD_CAT_ID":67773,"ELEMENT_SET_NO":999,"REV_AT_EPOCH":2436,"BSTAR":0.00012537897,"MEAN_MOTION_DOT":0.00000735,"MEAN_MOTION_DDOT":0},{"OBJECT_NAME":"KUIPER-00205","OBJECT_ID":"2026-030L","EPOCH":"2026-07-17T18:43:42.470688","CLASSIFICATION_TYPE":"U","MEAN_MOTION":14.79939486,"ECCENTRICITY":0.00008763,"INCLINATION":51.9013,"RA_OF_ASC_NODE":327.838,"ARG_OF_PERICENTER":135.1823,"MEAN_ANOMALY":224.921,"EPHEMERIS_TYPE":0,"NORAD_CAT_ID":67774,"ELEMENT_SET_NO":999,"REV_AT_EPOCH":2486,"BSTAR":-0.000072611051,"MEAN_MOTION_DOT":-0.00000775,"MEAN_MOTION_DDOT":0},{"OBJECT_NAME":"KUIPER-00208","OBJECT_ID":"2026-030M","EPOCH":"2026-07-17T22:00:01.999584","CLASSIFICATION_TYPE":"U","MEAN_MOTION":14.79565834,"ECCENTRICITY":0.00009352,"INCLINATION":51.8991,"RA_OF_ASC_NODE":354.7457,"ARG_OF_PERICENTER":213.291,"MEAN_ANOMALY":132.2469,"EPHEMERIS_TYPE":0,"NORAD_CAT_ID":67775,"ELEMENT_SET_NO":999,"REV_AT_EPOCH":560,"BSTAR":0.014387915,"MEAN_MOTION_DOT":0.00110314,"MEAN_MOTION_DDOT":0},{"OBJECT_NAME":"KUIPER-00209","OBJECT_ID":"2026-030N","EPOCH":"2026-07-17T19:42:17.659008","CLASSIFICATION_TYPE":"U","MEAN_MOTION":14.79927881,"ECCENTRICITY":0.00007225,"INCLINATION":51.9006,"RA_OF_ASC_NODE":352.76,"ARG_OF_PERICENTER":123.2281,"MEAN_ANOMALY":236.8751,"EPHEMERIS_TYPE":0,"NORAD_CAT_ID":67776,"ELEMENT_SET_NO":999,"REV_AT_EPOCH":2451,"BSTAR":0.000001732398,"MEAN_MOTION_DOT":-0.00000208,"MEAN_MOTION_DDOT":0},{"OBJECT_NAME":"KUIPER-00213","OBJECT_ID":"2026-030P","EPOCH":"2026-07-17T22:12:02.168640","CLASSIFICATION_TYPE":"U","MEAN_MOTION":14.79928417,"ECCENTRICITY":0.00006247,"INCLINATION":51.8989,"RA_OF_ASC_NODE":349.7812,"ARG_OF_PERICENTER":113.6172,"MEAN_ANOMALY":246.4856,"EPHEMERIS_TYPE":0,"NORAD_CAT_ID":67777,"ELEMENT_SET_NO":999,"REV_AT_EPOCH":2456,"BSTAR":0.00011702689,"MEAN_MOTION_DOT":0.00000671,"MEAN_MOTION_DDOT":0},{"OBJECT_NAME":"KUIPER-00214","OBJECT_ID":"2026-030Q","EPOCH":"2026-07-17T21:27:17.604864","CLASSIFICATION_TYPE":"U","MEAN_MOTION":14.79939654,"ECCENTRICITY":0.00006,"INCLINATION":51.9018,"RA_OF_ASC_NODE":347.4285,"ARG_OF_PERICENTER":125.838,"MEAN_ANOMALY":234.2638,"EPHEMERIS_TYPE":0,"NORAD_CAT_ID":67778,"ELEMENT_SET_NO":999,"REV_AT_EPOCH":2459,"BSTAR":0.00023890806,"MEAN_MOTION_DOT":0.00001601,"MEAN_MOTION_DDOT":0}]}
